[{"OBJECT_NAME":"STARLINK-32695","OBJECT_ID":"2025-022N","EPOCH":"2026-03-09T13:18:25.922016","MEAN_MOTION":15.30191356,"ECCENTRICITY":0.0001135,"INCLINATION":53.1606,"RA_OF_ASC_NODE":129.9413,"ARG_OF_PERICENTER":100.6636,"MEAN_ANOMALY":259.4492,"EPHEMERIS_TYPE":0,"CLASSIFICATION_TYPE":"U","NORAD_CAT_ID":62866,"ELEMENT_SET_NO":999,"REV_AT_EPOCH":6188,"BSTAR":0.00083824,"MEAN_MOTION_DOT":0.00024542,"MEAN_MOTION_DDOT":0},{"OBJECT_NAME":"NOAA 17 DEB","OBJECT_ID":"2002-032DK","EPOCH":"2026-03-06T06:53:22.349472","MEAN_MOTION":15.29547844,"ECCENTRICITY":0.00135803,"INCLINATION":98.6735,"RA_OF_ASC_NODE":77.6727,"ARG_OF_PERICENTER":131.2945,"MEAN_ANOMALY":228.9463,"EPHEMERIS_TYPE":0,"CLASSIFICATION_TYPE":"U","NORAD_CAT_ID":49481,"ELEMENT_SET_NO":999,"REV_AT_EPOCH":24998,"BSTAR":0.011623019,"MEAN_MOTION_DOT":0.00349096,"MEAN_MOTION_DDOT":0}]
